{"type": "FeatureCollection", "features": [{"type": "Feature", "properties": {"zone": "AE", "description": "High risk - coastal/riverine with BFE", "sfha": true, "risk_level": 5, "color": "#1565c0"}, "geometry": {"type": "Polygon", "coordinates": [[[-90.3, 30.1], [-89.8, 30.1], [-89.8, 29.8], [-90.3, 29.8], [-90.3, 30.1]]]}}, {"type": "Feature", "properties": {"zone": "VE", "description": "High risk - coastal velocity zone", "sfha": true, "risk_level": 5, "color": "#0d47a1"}, "geometry": {"type": "Polygon", "coordinates": [[[-80.3, 25.9], [-80.1, 25.9], [-80.1, 25.7], [-80.3, 25.7], [-80.3, 25.9]]]}}, {"type": "Feature", "properties": {"zone": "A", "description": "High risk - 100-year floodplain", "sfha": true, "risk_level": 4, "color": "#1976d2"}, "geometry": {"type": "Polygon", "coordinates": [[[-95.8, 30.0], [-95.0, 30.0], [-95.0, 29.5], [-95.8, 29.5], [-95.8, 30.0]]]}}, {"type": "Feature", "properties": {"zone": "AE", "description": "High risk - riverine with BFE", "sfha": true, "risk_level": 4, "color": "#1565c0"}, "geometry": {"type": "Polygon", "coordinates": [[[-80.0, 33.0], [-79.7, 33.0], [-79.7, 32.7], [-80.0, 32.7], [-80.0, 33.0]]]}}, {"type": "Feature", "properties": {"zone": "X", "description": "Moderate to low risk - 500-year", "sfha": false, "risk_level": 2, "color": "#90caf9"}, "geometry": {"type": "Polygon", "coordinates": [[[-122.5, 37.9], [-122.3, 37.9], [-122.3, 37.7], [-122.5, 37.7], [-122.5, 37.9]]]}}, {"type": "Feature", "properties": {"zone": "A", "description": "High risk - 100-year (Mississippi corridor)", "sfha": true, "risk_level": 4, "color": "#1976d2"}, "geometry": {"type": "Polygon", "coordinates": [[[-91.0, 36.0], [-89.5, 36.0], [-89.5, 34.5], [-91.0, 34.5], [-91.0, 36.0]]]}}]}