{"type": "FeatureCollection", "features": [{"type": "Feature", "properties": {"storm_id": "AL122005", "name": "KATRINA", "year": 2005, "max_wind": 150, "category": 5, "color": "#d32f2f"}, "geometry": {"type": "LineString", "coordinates": [[-75.1, 23.1], [-76.0, 23.4], [-78.4, 24.5], [-81.3, 25.3], [-83.2, 25.8], [-85.7, 26.0], [-87.7, 27.2], [-89.1, 28.2], [-89.6, 29.3], [-89.6, 30.2]]}}, {"type": "Feature", "properties": {"storm_id": "AL092017", "name": "IRMA", "year": 2017, "max_wind": 155, "category": 5, "color": "#d32f2f"}, "geometry": {"type": "LineString", "coordinates": [[-42.0, 16.0], [-50.0, 16.5], [-57.0, 16.8], [-61.0, 17.0], [-64.0, 18.0], [-67.0, 18.5], [-72.0, 21.0], [-77.0, 22.0], [-80.0, 24.5], [-81.0, 25.5], [-81.5, 26.5], [-82.0, 28.0], [-83.0, 30.0], [-84.0, 32.0]]}}, {"type": "Feature", "properties": {"storm_id": "AL182012", "name": "SANDY", "year": 2012, "max_wind": 100, "category": 2, "color": "#f57c00"}, "geometry": {"type": "LineString", "coordinates": [[-77.0, 14.3], [-78.5, 17.5], [-78.0, 19.0], [-77.5, 21.0], [-76.0, 24.0], [-74.5, 28.0], [-73.0, 33.0], [-74.0, 38.0], [-74.5, 40.0]]}}, {"type": "Feature", "properties": {"storm_id": "AL042008", "name": "DOLLY", "year": 2008, "max_wind": 75, "category": 1, "color": "#fbc02d"}, "geometry": {"type": "LineString", "coordinates": [[-83.0, 19.5], [-85.0, 19.8], [-87.5, 20.5], [-90.0, 21.0], [-93.5, 22.0], [-96.0, 24.0], [-97.0, 26.5]]}}, {"type": "Feature", "properties": {"storm_id": "AL062018", "name": "FLORENCE", "year": 2018, "max_wind": 130, "category": 4, "color": "#e53935"}, "geometry": {"type": "LineString", "coordinates": [[-22.0, 11.0], [-35.0, 14.0], [-48.0, 17.5], [-55.0, 20.0], [-60.0, 22.5], [-65.0, 25.0], [-70.0, 28.0], [-74.0, 31.0], [-76.0, 33.0], [-77.5, 34.0]]}}]}