{"type": "FeatureCollection", "features": [{"type": "Feature", "properties": {"zone": "Very High", "pga_range": "0.6g+", "risk_level": 5, "color": "#d32f2f"}, "geometry": {"type": "Polygon", "coordinates": [[[-124.5, 40.0], [-119.0, 40.0], [-119.0, 34.0], [-121.0, 34.0], [-124.5, 37.0], [-124.5, 40.0]]]}}, {"type": "Feature", "properties": {"zone": "High", "pga_range": "0.4-0.6g", "risk_level": 4, "color": "#f57c00"}, "geometry": {"type": "Polygon", "coordinates": [[[-125.0, 49.0], [-121.0, 49.0], [-121.0, 42.0], [-124.0, 42.0], [-125.0, 46.0], [-125.0, 49.0]]]}}, {"type": "Feature", "properties": {"zone": "Moderate-High", "pga_range": "0.2-0.4g", "risk_level": 3, "color": "#fbc02d"}, "geometry": {"type": "Polygon", "coordinates": [[[-92.0, 38.0], [-88.0, 38.0], [-88.0, 34.0], [-92.0, 34.0], [-92.0, 38.0]]]}}, {"type": "Feature", "properties": {"zone": "Moderate", "pga_range": "0.1-0.2g", "risk_level": 2, "color": "#1976d2"}, "geometry": {"type": "Polygon", "coordinates": [[[-83.0, 37.0], [-79.0, 37.0], [-79.0, 33.0], [-83.0, 33.0], [-83.0, 37.0]]]}}, {"type": "Feature", "properties": {"zone": "High (Alaska)", "pga_range": "0.4g+", "risk_level": 4, "color": "#f57c00"}, "geometry": {"type": "Polygon", "coordinates": [[[-165.0, 64.0], [-145.0, 64.0], [-145.0, 55.0], [-165.0, 55.0], [-165.0, 64.0]]]}}]}